OBJECT_NAME,OBJECT_ID,EPOCH,MEAN_MOTION,ECCENTRICITY,INCLINATION,RA_OF_ASC_NODE,ARG_OF_PERICENTER,MEAN_ANOMALY,EPHEMERIS_TYPE,CLASSIFICATION_TYPE,NORAD_CAT_ID,ELEMENT_SET_NO,REV_AT_EPOCH,BSTAR,MEAN_MOTION_DOT,MEAN_MOTION_DDOT
HST,1990-037B,2026-07-01T03:49:52.578048,15.30913500,.0001499,28.4735,345.0705,316.6330,43.4148,0,U,20580,999,79071,.25961E-3,.8219E-4,0
POLAR,1996-013A,2026-06-30T03:08:36.961440,1.29846073,.64833789,79.8705,226.8996,208.6352,90.6787,0,U,23802,999,14502,0,.195E-5,0
SWAS,1998-071A,2026-07-01T03:05:34.687680,15.09688664,.0008486,69.8937,191.5638,246.2059,113.8216,0,U,25560,999,49937,.15404E-3,.2383E-4,0
CXO,1999-040B,2026-07-01T14:24:08.173440,0.37794011,.78122746,56.3386,116.3110,310.0948,0.4515,0,U,25867,999,1737,0,.698E-5,0
XMM-NEWTON,1999-066A,2026-06-30T07:31:49.282176,0.50127122,.46708159,64.4187,282.8185,64.6474,0.0796,0,U,25989,999,2307,0,.75E-6,0
TERRA,1999-068A,2026-07-01T04:31:32.261376,14.61114460,.0002647,97.9449,231.1793,151.6481,244.4540,0,U,25994,999,41165,.10436E-3,.469E-5,0
CLUSTER II-FM7 (SAMBA),2000-041A,2026-07-02T18:10:50.311200,0.44834504,.907287,149.8840,53.4423,270.8480,359.6360,0,U,26410,999,2037,0,.12787E-3,0
CLUSTER II-FM8 (TANGO),2000-045B,2026-06-28T16:41:34.777824,0.44420805,.90720795,150.1134,53.8490,271.0645,2.4192,0,U,26464,999,2036,0,.10301E-3,0
ODIN,2001-007A,2026-07-01T02:32:38.138208,15.81396210,.000573,97.3785,223.9921,134.8411,225.3323,0,U,26702,999,39159,.15804E-2,.322699E-2,0
TIMED,2001-055B,2026-07-01T03:00:00.019872,14.95320491,.0001799,74.0662,206.9544,316.3925,43.7117,0,U,26998,999,33290,.10457E-3,.1113E-4,0
CORIOLIS,2003-001A,2026-07-01T00:11:58.779744,14.19948591,.0014191,98.7127,188.6821,168.3829,191.7678,0,U,27640,999,21618,.7163E-4,.109E-5,0
SORCE,2003-004A,2026-07-01T03:39:41.604768,15.03776973,.0016893,39.9886,181.9951,156.4439,203.7131,0,U,27651,999,27400,.21295E-3,.2833E-4,0
MOST,2003-031D,2026-07-01T00:13:01.166592,14.21325267,.0009262,98.7044,189.5420,206.6107,153.4596,0,U,27843,999,19267,.50101E-4,.66E-6,0
SCISAT 1,2003-036A,2026-07-01T03:16:49.137312,14.81463587,.0008056,73.9294,143.6270,213.5798,146.4869,0,U,27858,999,23351,.87538E-4,.649E-5,0
SWIFT,2004-047A,2026-07-01T01:08:10.105152,15.69666509,.0000897,20.5532,77.8802,135.6702,224.3816,0,U,28485,999,18904,.53702E-3,.68133E-3,0
HINODE (SOLAR-B),2006-041A,2026-07-01T00:23:08.223360,14.68642141,.0016126,98.0543,197.9646,241.8956,118.0619,0,U,29479,999,5690,.14884E-3,.818E-5,0
SHIJIAN-6 02A (SJ-6 02A),2006-046A,2026-07-01T04:58:19.457760,15.17098040,.0004716,97.6348,223.3797,93.9233,266.2540,0,U,29505,999,7439,.20949E-3,.4082E-4,0
SHIJIAN-6 02B (SJ-6 02B),2006-046B,2026-07-01T03:24:39.023712,15.01409538,.0015018,97.7151,211.1146,20.7876,339.3955,0,U,29506,999,7283,.8454E-4,.1032E-4,0
FGRST (GLAST),2008-029A,2026-07-01T02:38:02.059584,15.24007652,.0008457,25.5819,107.8030,128.9759,231.1533,0,U,33053,999,99796,.11354E-3,.317E-4,0
SDO,2010-005A,2026-06-30T05:53:38.601888,1.00270579,.00014936,34.6771,86.1450,51.4419,126.9147,0,U,36395,999,6019,0,-.9E-6,0
CRYOSAT 2,2010-013A,2026-07-01T05:02:34.787904,14.51903302,.0002182,92.0361,280.7105,96.5362,263.6093,0,U,36508,999,86011,.32305E-4,.133E-5,0
X-SAT,2011-015C,2026-07-01T04:42:46.432800,14.25211208,.0013076,98.3512,158.5530,305.9390,54.0577,0,U,37389,999,78967,.19647E-3,.421E-5,0
GCOM-W1 (SHIZUKU),2012-025A,2026-06-30T10:24:02.926944,14.57136646,.0001594,98.2022,121.7886,68.9682,45.6130,0,U,38337,999,75096,.11796E-3,.487E-5,0
NUSTAR,2012-031A,2026-07-01T04:00:03.000096,15.08934665,.0008915,6.0273,289.2956,312.0372,319.5527,0,U,38358,999,130,.31393E-3,.597E-4,0
NEOSSAT,2013-009D,2026-07-01T01:51:02.868192,14.35831296,.0010549,98.4181,1.7798,199.1470,160.9321,0,U,39089,999,69873,.69942E-4,.16E-5,0
BRITE-AUSTRIA,2013-009F,2026-07-01T01:39:06.988032,14.36547665,.0009862,98.3999,1.1613,192.0720,168.0232,0,U,39091,999,69904,.83556E-4,.203E-5,0
IRIS,2013-033A,2026-07-01T02:30:16.962336,14.85912972,.0022955,97.9321,21.3375,273.9079,85.9512,0,U,39197,999,70244,.1378E-3,.1151E-4,0
HISAKI (SPRINT-A),2013-049A,2026-07-01T04:42:03.134304,13.55545770,.0136879,29.7177,148.7873,130.4269,230.8332,0,U,39253,999,63332,.24382E-4,.82E-6,0
CASSIOPE,2013-055A,2026-07-01T03:07:07.315392,15.26469374,.0287431,80.9129,49.7741,15.5249,345.4568,0,U,39265,999,66979,.5576E-3,.51614E-3,-.23236E-6
STSAT-3,2013-066G,2026-07-01T05:29:17.209824,15.02832416,.0009744,97.6217,151.8916,2.5288,357.5985,0,U,39422,999,68631,.29927E-3,.3952E-4,0
SWARM B,2013-067A,2026-07-01T03:26:31.799040,15.28637476,.000287,87.7448,338.0755,80.4572,279.7002,0,U,39451,999,68537,.13514E-3,.3796E-4,0
