HST                     
1 20580U 90037B   26182.15963632  .00008219  00000+0  25961-3 0  9993
2 20580  28.4735 345.0705 0001499 316.6330  43.4148 15.30913500790710
POLAR                   
1 23802U 96013A   26181.13098335  .00000195  00000+0  00000+0 0  9997
2 23802  79.8705 226.8996 6483378 208.6352  90.6787  1.29846073145029
SWAS                    
1 25560U 98071A   26182.12887370  .00002383  00000+0  15404-3 0  9990
2 25560  69.8937 191.5638 0008486 246.2059 113.8216 15.09688664499376
CXO                     
1 25867U 99040B   26182.60009460  .00000698  00000+0  00000+0 0  9995
2 25867  56.3386 116.3110 7812274 310.0948   0.4515  0.37794011 17375
XMM-NEWTON              
1 25989U 99066A   26181.31376484  .00000075  00000+0  00000+0 0  9997
2 25989  64.4187 282.8185 4670815  64.6474   0.0796  0.50127122 23075
TERRA                   
1 25994U 99068A   26182.18856784  .00000469  00000+0  10436-3 0  9992
2 25994  97.9449 231.1793 0002647 151.6481 244.4540 14.61114460411652
CLUSTER II-FM7 (SAMBA)  
1 26410U 00041A   26183.75752675  .00012787  00000+0  00000+0 0  9995
2 26410 149.8840  53.4423 9072870 270.8480 359.6360  0.44834504 20378
CLUSTER II-FM8 (TANGO)  
1 26464U 00045B   26179.69554141  .00010301  00000+0  00000+0 0  9994
2 26464 150.1134  53.8490 9072079 271.0645   2.4192  0.44420805 20363
ODIN                    
1 26702U 01007A   26182.10599697  .00322699  00000+0  15804-2 0  9990
2 26702  97.3785 223.9921 0005730 134.8411 225.3323 15.81396210391596
TIMED                   
1 26998U 01055B   26182.12500023  .00001113  00000+0  10457-3 0  9992
2 26998  74.0662 206.9544 0001799 316.3925  43.7117 14.95320491332904
CORIOLIS                
1 27640U 03001A   26182.00831921  .00000109  00000+0  71630-4 0  9996
2 27640  98.7127 188.6821 0014191 168.3829 191.7678 14.19948591216180
SORCE                   
1 27651U 03004A   26182.15256487  .00002833  00000+0  21295-3 0  9992
2 27651  39.9886 181.9951 0016893 156.4439 203.7131 15.03776973274007
MOST                    
1 27843U 03031D   26182.00904128  .00000066  00000+0  50101-4 0  9996
2 27843  98.7044 189.5420 0009262 206.6107 153.4596 14.21325267192679
SCISAT 1                
1 27858U 03036A   26182.13667983  .00000649  00000+0  87538-4 0  9997
2 27858  73.9294 143.6270 0008056 213.5798 146.4869 14.81463587233512
SWIFT                   
1 28485U 04047A   26182.04733918  .00068133  00000+0  53702-3 0  9996
2 28485  20.5532  77.8802 0000897 135.6702 224.3816 15.69666509189047
HINODE (SOLAR-B)        
1 29479U 06041A   26182.01606740  .00000818  00000+0  14884-3 0  9999
2 29479  98.0543 197.9646 0016126 241.8956 118.0619 14.68642141 56908
SHIJIAN-6 02A (SJ-6 02A)
1 29505U 06046A   26182.20716965  .00004082  00000+0  20949-3 0  9992
2 29505  97.6348 223.3797 0004716  93.9233 266.2540 15.17098040 74393
SHIJIAN-6 02B (SJ-6 02B)
1 29506U 06046B   26182.14211833  .00001032  00000+0  84540-4 0  9990
2 29506  97.7151 211.1146 0015018  20.7876 339.3955 15.01409538 72838
FGRST (GLAST)           
1 33053U 08029A   26182.10974606  .00003170  00000+0  11354-3 0  9992
2 33053  25.5819 107.8030 0008457 128.9759 231.1533 15.24007652997960
SDO                     
1 36395U 10005A   26181.24558567 -.00000090  00000+0  00000+0 0  9990
2 36395  34.6771  86.1450 0001493  51.4419 126.9147  1.00270579 60198
CRYOSAT 2               
1 36508U 10013A   26182.21012486  .00000133  00000+0  32305-4 0  9993
2 36508  92.0361 280.7105 0002182  96.5362 263.6093 14.51903302860115
X-SAT                   
1 37389U 11015C   26182.19637075  .00000421  00000+0  19647-3 0  9991
2 37389  98.3512 158.5530 0013076 305.9390  54.0577 14.25211208789674
GCOM-W1 (SHIZUKU)       
1 38337U 12025A   26181.43336721  .00000487  00000+0  11796-3 0  9996
2 38337  98.2022 121.7886 0001594  68.9682  45.6130 14.57136646750969
NUSTAR                  
1 38358U 12031A   26182.16670139  .00005970  00000+0  31393-3 0  9998
2 38358   6.0273 289.2956 0008915 312.0372 319.5527 15.08934665  1302
NEOSSAT                 
1 39089U 13009D   26182.07711653  .00000160  00000+0  69942-4 0  9991
2 39089  98.4181   1.7798 0010549 199.1470 160.9321 14.35831296698731
BRITE-AUSTRIA           
1 39091U 13009F   26182.06883088  .00000203  00000+0  83556-4 0  9990
2 39091  98.3999   1.1613 0009862 192.0720 168.0232 14.36547665699046
IRIS                    
1 39197U 13033A   26182.10436299  .00001151  00000+0  13780-3 0  9991
2 39197  97.9321  21.3375 0022955 273.9079  85.9512 14.85912972702448
HISAKI (SPRINT-A)       
1 39253U 13049A   26182.19586961  .00000082  00000+0  24382-4 0  9995
2 39253  29.7177 148.7873 0136879 130.4269 230.8332 13.55545770633324
CASSIOPE                
1 39265U 13055A   26182.12994578  .00051614 -23236-6  55760-3 0  9999
2 39265  80.9129  49.7741 0287431  15.5249 345.4568 15.26469374669798
STSAT-3                 
1 39422U 13066G   26182.22867141  .00003952  00000+0  29927-3 0  9996
2 39422  97.6217 151.8916 0009744   2.5288 357.5985 15.02832416686312
SWARM B                 
1 39451U 13067A   26182.14342360  .00003796  00000+0  13514-3 0  9992
2 39451  87.7448 338.0755 0002870  80.4572 279.7002 15.28637476685371
